{
"type": "FeatureCollection",
"name": "spicebush",
"crs": { "type": "name", "properties": { "name": "urn:ogc:def:crs:OGC:1.3:CRS84" } },
"features": [
{ "type": "Feature", "properties": { "id": 1, "latitude": 41.3359, "longitude": -72.910025, "stem_count": "M", "base_diameter_cm": 5.3, "dbh_cm": 4.3, "height_m": 4.8, "sex": "F", "notes": null }, "geometry": { "type": "Point", "coordinates": [ -72.910025, 41.3359 ] } },
{ "type": "Feature", "properties": { "id": 2, "latitude": 41.3358, "longitude": -72.91002, "stem_count": "2", "base_diameter_cm": 2.9, "dbh_cm": 1.95, "height_m": 1.7, "sex": "F", "notes": "also male" }, "geometry": { "type": "Point", "coordinates": [ -72.91002, 41.3358 ] } },
{ "type": "Feature", "properties": { "id": 3, "latitude": 41.33587, "longitude": -72.91006, "stem_count": "M", "base_diameter_cm": 2.51, "dbh_cm": 2.38, "height_m": 2.3, "sex": "F", "notes": null }, "geometry": { "type": "Point", "coordinates": [ -72.91006, 41.33587 ] } },
{ "type": "Feature", "properties": { "id": 4, "latitude": 41.335883333333335, "longitude": -72.910008333333337, "stem_count": "1", "base_diameter_cm": 3.18, "dbh_cm": 2.11, "height_m": 2.1, "sex": "F", "notes": null }, "geometry": { "type": "Point", "coordinates": [ -72.910008333333337, 41.335883333333335 ] } },
{ "type": "Feature", "properties": { "id": 5, "latitude": 41.335803333333331, "longitude": -72.90994666666667, "stem_count": "2", "base_diameter_cm": 6.8, "dbh_cm": 3.7, "height_m": 2.5, "sex": "M", "notes": "also female" }, "geometry": { "type": "Point", "coordinates": [ -72.90994666666667, 41.335803333333331 ] } },
{ "type": "Feature", "properties": { "id": 6, "latitude": 41.335561666666663, "longitude": -72.909846666666667, "stem_count": "2", "base_diameter_cm": 3.05, "dbh_cm": 1.9, "height_m": 2.0, "sex": "F", "notes": null }, "geometry": { "type": "Point", "coordinates": [ -72.909846666666667, 41.335561666666663 ] } },
{ "type": "Feature", "properties": { "id": 7, "latitude": 41.33596166666667, "longitude": -72.909801666666667, "stem_count": "2", "base_diameter_cm": 13.5, "dbh_cm": 5.9, "height_m": 6.1, "sex": "M", "notes": null }, "geometry": { "type": "Point", "coordinates": [ -72.909801666666667, 41.33596166666667 ] } },
{ "type": "Feature", "properties": { "id": 8, "latitude": 41.336, "longitude": -72.90976666666667, "stem_count": "4", "base_diameter_cm": 15.0, "dbh_cm": 5.8, "height_m": 5.8, "sex": "F", "notes": null }, "geometry": { "type": "Point", "coordinates": [ -72.90976666666667, 41.336 ] } },
{ "type": "Feature", "properties": { "id": 9, "latitude": 41.335996666666666, "longitude": -72.909845, "stem_count": "2", "base_diameter_cm": 7.3, "dbh_cm": 4.6, "height_m": 4.7, "sex": "M", "notes": null }, "geometry": { "type": "Point", "coordinates": [ -72.909845, 41.335996666666666 ] } },
{ "type": "Feature", "properties": { "id": 10, "latitude": 41.33591666666667, "longitude": -72.90979333333334, "stem_count": "M", "base_diameter_cm": 8.1, "dbh_cm": 3.7, "height_m": 1.3, "sex": "F", "notes": null }, "geometry": { "type": "Point", "coordinates": [ -72.90979333333334, 41.33591666666667 ] } },
{ "type": "Feature", "properties": { "id": 11, "latitude": 41.335988333333333, "longitude": -72.909816666666671, "stem_count": "M", "base_diameter_cm": 1.65, "dbh_cm": 1.04, "height_m": 0.7, "sex": "U", "notes": null }, "geometry": { "type": "Point", "coordinates": [ -72.909816666666671, 41.335988333333333 ] } },
{ "type": "Feature", "properties": { "id": 12, "latitude": 41.335876666666664, "longitude": -72.90970333333334, "stem_count": "M", "base_diameter_cm": 8.7, "dbh_cm": 3.7, "height_m": 3.6, "sex": "U", "notes": null }, "geometry": { "type": "Point", "coordinates": [ -72.90970333333334, 41.335876666666664 ] } },
{ "type": "Feature", "properties": { "id": 13, "latitude": 41.33591666666667, "longitude": -72.909788333333339, "stem_count": "2", "base_diameter_cm": 1.1, "dbh_cm": null, "height_m": 0.45, "sex": "J", "notes": null }, "geometry": { "type": "Point", "coordinates": [ -72.909788333333339, 41.33591666666667 ] } },
{ "type": "Feature", "properties": { "id": 14, "latitude": 41.335923333333334, "longitude": -72.909728333333334, "stem_count": "M", "base_diameter_cm": 0.8, "dbh_cm": null, "height_m": 0.83, "sex": "J", "notes": null }, "geometry": { "type": "Point", "coordinates": [ -72.909728333333334, 41.335923333333334 ] } },
{ "type": "Feature", "properties": { "id": 15, "latitude": 41.335871666666669, "longitude": -72.90974, "stem_count": "M", "base_diameter_cm": 10.5, "dbh_cm": 5.9, "height_m": 5.1, "sex": "F", "notes": null }, "geometry": { "type": "Point", "coordinates": [ -72.90974, 41.335871666666669 ] } },
{ "type": "Feature", "properties": { "id": 16, "latitude": 41.335863333333336, "longitude": -72.909775, "stem_count": "M", "base_diameter_cm": 7.25, "dbh_cm": 5.4, "height_m": 5.03, "sex": "M", "notes": null }, "geometry": { "type": "Point", "coordinates": [ -72.909775, 41.335863333333336 ] } },
{ "type": "Feature", "properties": { "id": 17, "latitude": 41.335763333333333, "longitude": -72.909681666666671, "stem_count": "2", "base_diameter_cm": 1.61, "dbh_cm": 0.4, "height_m": 1.25, "sex": "J", "notes": null }, "geometry": { "type": "Point", "coordinates": [ -72.909681666666671, 41.335763333333333 ] } },
{ "type": "Feature", "properties": { "id": 18, "latitude": 41.335663333333336, "longitude": -72.909783333333337, "stem_count": "M", "base_diameter_cm": 1.26, "dbh_cm": 0.75, "height_m": 1.75, "sex": "J", "notes": null }, "geometry": { "type": "Point", "coordinates": [ -72.909783333333337, 41.335663333333336 ] } },
{ "type": "Feature", "properties": { "id": 19, "latitude": 41.335583333333332, "longitude": -72.909501666666671, "stem_count": "M", "base_diameter_cm": 1.68, "dbh_cm": null, "height_m": 1.15, "sex": "F", "notes": null }, "geometry": { "type": "Point", "coordinates": [ -72.909501666666671, 41.335583333333332 ] } },
{ "type": "Feature", "properties": { "id": 20, "latitude": 41.33567166666667, "longitude": -72.909533333333329, "stem_count": "M", "base_diameter_cm": 1.65, "dbh_cm": null, "height_m": 1.45, "sex": "F", "notes": null }, "geometry": { "type": "Point", "coordinates": [ -72.909533333333329, 41.33567166666667 ] } },
{ "type": "Feature", "properties": { "id": 21, "latitude": 41.33561, "longitude": -72.90954, "stem_count": "M", "base_diameter_cm": 2.76, "dbh_cm": 1.72, "height_m": 2.3, "sex": "M", "notes": null }, "geometry": { "type": "Point", "coordinates": [ -72.90954, 41.33561 ] } },
{ "type": "Feature", "properties": { "id": 22, "latitude": 41.335506666666667, "longitude": -72.909643333333335, "stem_count": "M", "base_diameter_cm": 2.19, "dbh_cm": 1.32, "height_m": 1.95, "sex": "M", "notes": null }, "geometry": { "type": "Point", "coordinates": [ -72.909643333333335, 41.335506666666667 ] } },
{ "type": "Feature", "properties": { "id": 23, "latitude": 41.335708333333336, "longitude": -72.909681666666671, "stem_count": "1", "base_diameter_cm": 1.22, "dbh_cm": null, "height_m": 0.8, "sex": "F", "notes": null }, "geometry": { "type": "Point", "coordinates": [ -72.909681666666671, 41.335708333333336 ] } },
{ "type": "Feature", "properties": { "id": 24, "latitude": 41.335645, "longitude": -72.909761666666668, "stem_count": "1", "base_diameter_cm": 1.11, "dbh_cm": null, "height_m": 1.05, "sex": "J", "notes": null }, "geometry": { "type": "Point", "coordinates": [ -72.909761666666668, 41.335645 ] } },
{ "type": "Feature", "properties": { "id": 25, "latitude": 41.335608333333333, "longitude": -72.909575, "stem_count": "1", "base_diameter_cm": 4.12, "dbh_cm": 2.75, "height_m": 2.05, "sex": "F", "notes": null }, "geometry": { "type": "Point", "coordinates": [ -72.909575, 41.335608333333333 ] } },
{ "type": "Feature", "properties": { "id": 26, "latitude": 41.335745, "longitude": -72.909371666666672, "stem_count": "3", "base_diameter_cm": 1.51, "dbh_cm": null, "height_m": 0.5, "sex": "J", "notes": null }, "geometry": { "type": "Point", "coordinates": [ -72.909371666666672, 41.335745 ] } },
{ "type": "Feature", "properties": { "id": 27, "latitude": 41.335676666666664, "longitude": -72.90943, "stem_count": "1", "base_diameter_cm": 1.35, "dbh_cm": null, "height_m": 0.94, "sex": "J", "notes": null }, "geometry": { "type": "Point", "coordinates": [ -72.90943, 41.335676666666664 ] } },
{ "type": "Feature", "properties": { "id": 28, "latitude": 41.335583333333332, "longitude": -72.909285, "stem_count": "3", "base_diameter_cm": 1.43, "dbh_cm": null, "height_m": 1.15, "sex": "J", "notes": null }, "geometry": { "type": "Point", "coordinates": [ -72.909285, 41.335583333333332 ] } },
{ "type": "Feature", "properties": { "id": 29, "latitude": 41.33565, "longitude": -72.90916, "stem_count": "1", "base_diameter_cm": 1.67, "dbh_cm": null, "height_m": 1.06, "sex": "F", "notes": null }, "geometry": { "type": "Point", "coordinates": [ -72.90916, 41.33565 ] } },
{ "type": "Feature", "properties": { "id": 30, "latitude": 41.335746666666665, "longitude": -72.909305, "stem_count": "1", "base_diameter_cm": 1.22, "dbh_cm": null, "height_m": 1.04, "sex": "J", "notes": null }, "geometry": { "type": "Point", "coordinates": [ -72.909305, 41.335746666666665 ] } },
{ "type": "Feature", "properties": { "id": 31, "latitude": 41.33567166666667, "longitude": -72.909225, "stem_count": "4", "base_diameter_cm": 2.1, "dbh_cm": 0.93, "height_m": 1.74, "sex": "F", "notes": null }, "geometry": { "type": "Point", "coordinates": [ -72.909225, 41.33567166666667 ] } },
{ "type": "Feature", "properties": { "id": 32, "latitude": 41.335668333333331, "longitude": -72.909261666666666, "stem_count": "2", "base_diameter_cm": 1.08, "dbh_cm": null, "height_m": 1.22, "sex": "F", "notes": null }, "geometry": { "type": "Point", "coordinates": [ -72.909261666666666, 41.335668333333331 ] } },
{ "type": "Feature", "properties": { "id": 33, "latitude": 41.335648333333332, "longitude": -72.909228333333331, "stem_count": "5", "base_diameter_cm": 2.03, "dbh_cm": null, "height_m": 0.75, "sex": "F", "notes": null }, "geometry": { "type": "Point", "coordinates": [ -72.909228333333331, 41.335648333333332 ] } },
{ "type": "Feature", "properties": { "id": 34, "latitude": 41.33562666666667, "longitude": -72.909295, "stem_count": "4", "base_diameter_cm": 2.93, "dbh_cm": 1.0, "height_m": 2.2, "sex": "F", "notes": null }, "geometry": { "type": "Point", "coordinates": [ -72.909295, 41.33562666666667 ] } },
{ "type": "Feature", "properties": { "id": 35, "latitude": 41.335611666666665, "longitude": -72.909193333333334, "stem_count": "4", "base_diameter_cm": 3.07, "dbh_cm": 1.94, "height_m": 2.3, "sex": "F", "notes": null }, "geometry": { "type": "Point", "coordinates": [ -72.909193333333334, 41.335611666666665 ] } },
{ "type": "Feature", "properties": { "id": 36, "latitude": 41.335601666666669, "longitude": -72.90922, "stem_count": "7", "base_diameter_cm": 2.83, "dbh_cm": 1.62, "height_m": 2.99, "sex": "M", "notes": null }, "geometry": { "type": "Point", "coordinates": [ -72.90922, 41.335601666666669 ] } },
{ "type": "Feature", "properties": { "id": 37, "latitude": 41.335611666666665, "longitude": -72.909301666666664, "stem_count": "5", "base_diameter_cm": 2.89, "dbh_cm": 1.2, "height_m": 2.2, "sex": "M", "notes": null }, "geometry": { "type": "Point", "coordinates": [ -72.909301666666664, 41.335611666666665 ] } },
{ "type": "Feature", "properties": { "id": 38, "latitude": 41.335573333333336, "longitude": -72.909216666666666, "stem_count": "3", "base_diameter_cm": 2.67, "dbh_cm": 1.74, "height_m": 2.5, "sex": "M", "notes": null }, "geometry": { "type": "Point", "coordinates": [ -72.909216666666666, 41.335573333333336 ] } },
{ "type": "Feature", "properties": { "id": 39, "latitude": 41.335585, "longitude": -72.909311666666667, "stem_count": "3", "base_diameter_cm": 1.72, "dbh_cm": 0.82, "height_m": 1.88, "sex": "M", "notes": null }, "geometry": { "type": "Point", "coordinates": [ -72.909311666666667, 41.335585 ] } },
{ "type": "Feature", "properties": { "id": 40, "latitude": 41.335603333333331, "longitude": -72.909343333333339, "stem_count": "2", "base_diameter_cm": 2.42, "dbh_cm": 1.33, "height_m": 1.98, "sex": "M", "notes": null }, "geometry": { "type": "Point", "coordinates": [ -72.909343333333339, 41.335603333333331 ] } },
{ "type": "Feature", "properties": { "id": 41, "latitude": 41.335613333333335, "longitude": -72.90948, "stem_count": "4", "base_diameter_cm": 3.57, "dbh_cm": 2.25, "height_m": 2.85, "sex": "F", "notes": null }, "geometry": { "type": "Point", "coordinates": [ -72.90948, 41.335613333333335 ] } },
{ "type": "Feature", "properties": { "id": 42, "latitude": 41.33561, "longitude": -72.90935, "stem_count": "3", "base_diameter_cm": 4.61, "dbh_cm": 4.29, "height_m": 3.1, "sex": "M", "notes": null }, "geometry": { "type": "Point", "coordinates": [ -72.90935, 41.33561 ] } },
{ "type": "Feature", "properties": { "id": 43, "latitude": 41.335558333333331, "longitude": -72.909373333333335, "stem_count": "7", "base_diameter_cm": 6.65, "dbh_cm": 5.3, "height_m": 2.6, "sex": "F", "notes": null }, "geometry": { "type": "Point", "coordinates": [ -72.909373333333335, 41.335558333333331 ] } },
{ "type": "Feature", "properties": { "id": 44, "latitude": 41.335578333333331, "longitude": -72.909348333333327, "stem_count": "4", "base_diameter_cm": 4.39, "dbh_cm": 3.25, "height_m": 2.2, "sex": "M", "notes": null }, "geometry": { "type": "Point", "coordinates": [ -72.909348333333327, 41.335578333333331 ] } },
{ "type": "Feature", "properties": { "id": 45, "latitude": 41.335528333333336, "longitude": -72.909353333333328, "stem_count": "8", "base_diameter_cm": 4.81, "dbh_cm": 2.38, "height_m": 2.5, "sex": "F", "notes": null }, "geometry": { "type": "Point", "coordinates": [ -72.909353333333328, 41.335528333333336 ] } },
{ "type": "Feature", "properties": { "id": 46, "latitude": 41.335586666666664, "longitude": -72.9093, "stem_count": "2", "base_diameter_cm": 1.35, "dbh_cm": null, "height_m": 1.05, "sex": "J", "notes": null }, "geometry": { "type": "Point", "coordinates": [ -72.9093, 41.335586666666664 ] } },
{ "type": "Feature", "properties": { "id": 47, "latitude": 41.335566666666665, "longitude": -72.909293333333338, "stem_count": "4", "base_diameter_cm": 2.39, "dbh_cm": 1.81, "height_m": 2.3, "sex": "M", "notes": null }, "geometry": { "type": "Point", "coordinates": [ -72.909293333333338, 41.335566666666665 ] } },
{ "type": "Feature", "properties": { "id": 48, "latitude": 41.335538333333332, "longitude": -72.909198333333336, "stem_count": "3", "base_diameter_cm": 1.53, "dbh_cm": null, "height_m": 0.94, "sex": "M", "notes": null }, "geometry": { "type": "Point", "coordinates": [ -72.909198333333336, 41.335538333333332 ] } },
{ "type": "Feature", "properties": { "id": 49, "latitude": 41.335526666666667, "longitude": -72.909258333333327, "stem_count": "2", "base_diameter_cm": 1.01, "dbh_cm": null, "height_m": 0.83, "sex": "J", "notes": null }, "geometry": { "type": "Point", "coordinates": [ -72.909258333333327, 41.335526666666667 ] } },
{ "type": "Feature", "properties": { "id": 50, "latitude": 41.335475, "longitude": -72.909335, "stem_count": "1", "base_diameter_cm": 1.63, "dbh_cm": 0.58, "height_m": 1.6, "sex": "F", "notes": null }, "geometry": { "type": "Point", "coordinates": [ -72.909335, 41.335475 ] } },
{ "type": "Feature", "properties": { "id": 51, "latitude": 41.335468333333331, "longitude": -72.909395, "stem_count": "1", "base_diameter_cm": 1.59, "dbh_cm": 0.59, "height_m": 1.55, "sex": "F", "notes": null }, "geometry": { "type": "Point", "coordinates": [ -72.909395, 41.335468333333331 ] } },
{ "type": "Feature", "properties": { "id": 52, "latitude": 41.335433333333334, "longitude": -72.9096, "stem_count": "8", "base_diameter_cm": 3.14, "dbh_cm": 1.95, "height_m": 3.05, "sex": "F", "notes": null }, "geometry": { "type": "Point", "coordinates": [ -72.9096, 41.335433333333334 ] } },
{ "type": "Feature", "properties": { "id": 53, "latitude": 41.335586666666664, "longitude": -72.909366666666671, "stem_count": "11", "base_diameter_cm": 3.44, "dbh_cm": 1.76, "height_m": 3.1, "sex": "M", "notes": "growing off 6cm base" }, "geometry": { "type": "Point", "coordinates": [ -72.909366666666671, 41.335586666666664 ] } },
{ "type": "Feature", "properties": { "id": 54, "latitude": 41.335675, "longitude": -72.909386666666663, "stem_count": "1", "base_diameter_cm": 1.03, "dbh_cm": null, "height_m": 0.5, "sex": "J", "notes": null }, "geometry": { "type": "Point", "coordinates": [ -72.909386666666663, 41.335675 ] } },
{ "type": "Feature", "properties": { "id": 55, "latitude": 41.33548, "longitude": -72.909226666666669, "stem_count": "3", "base_diameter_cm": 1.78, "dbh_cm": 0.54, "height_m": 1.45, "sex": "F", "notes": null }, "geometry": { "type": "Point", "coordinates": [ -72.909226666666669, 41.33548 ] } },
{ "type": "Feature", "properties": { "id": 56, "latitude": 41.335418333333337, "longitude": -72.909335, "stem_count": "19", "base_diameter_cm": 8.3, "dbh_cm": 6.34, "height_m": 4.6, "sex": "M", "notes": null }, "geometry": { "type": "Point", "coordinates": [ -72.909335, 41.335418333333337 ] } },
{ "type": "Feature", "properties": { "id": 57, "latitude": 41.335418333333337, "longitude": -72.909375, "stem_count": "5", "base_diameter_cm": 2.2, "dbh_cm": 1.82, "height_m": 1.5, "sex": "U", "notes": null }, "geometry": { "type": "Point", "coordinates": [ -72.909375, 41.335418333333337 ] } },
{ "type": "Feature", "properties": { "id": 58, "latitude": 41.335426666666663, "longitude": -72.90947, "stem_count": "2", "base_diameter_cm": 1.4, "dbh_cm": null, "height_m": 1.35, "sex": "U", "notes": null }, "geometry": { "type": "Point", "coordinates": [ -72.90947, 41.335426666666663 ] } },
{ "type": "Feature", "properties": { "id": 59, "latitude": 41.335416666666667, "longitude": -72.909533333333329, "stem_count": "3", "base_diameter_cm": 1.07, "dbh_cm": null, "height_m": 1.2, "sex": "U", "notes": null }, "geometry": { "type": "Point", "coordinates": [ -72.909533333333329, 41.335416666666667 ] } },
{ "type": "Feature", "properties": { "id": 60, "latitude": 41.335366666666665, "longitude": -72.90940333333333, "stem_count": "2", "base_diameter_cm": 1.62, "dbh_cm": null, "height_m": 0.86, "sex": "U", "notes": "3 dead stems" }, "geometry": { "type": "Point", "coordinates": [ -72.90940333333333, 41.335366666666665 ] } },
{ "type": "Feature", "properties": { "id": 61, "latitude": 41.335453333333334, "longitude": -72.909563333333338, "stem_count": "8", "base_diameter_cm": 1.34, "dbh_cm": null, "height_m": 0.9, "sex": "U", "notes": null }, "geometry": { "type": "Point", "coordinates": [ -72.909563333333338, 41.335453333333334 ] } },
{ "type": "Feature", "properties": { "id": 62, "latitude": 41.335085, "longitude": -72.90973666666666, "stem_count": "4", "base_diameter_cm": 1.47, "dbh_cm": null, "height_m": 1.06, "sex": "U", "notes": null }, "geometry": { "type": "Point", "coordinates": [ -72.90973666666666, 41.335085 ] } },
{ "type": "Feature", "properties": { "id": 63, "latitude": 41.335126666666667, "longitude": -72.90973, "stem_count": "3", "base_diameter_cm": 1.47, "dbh_cm": null, "height_m": 0.61, "sex": "U", "notes": null }, "geometry": { "type": "Point", "coordinates": [ -72.90973, 41.335126666666667 ] } },
{ "type": "Feature", "properties": { "id": 64, "latitude": 41.335165, "longitude": -72.909656666666663, "stem_count": "4", "base_diameter_cm": 1.25, "dbh_cm": null, "height_m": 0.72, "sex": "U", "notes": null }, "geometry": { "type": "Point", "coordinates": [ -72.909656666666663, 41.335165 ] } },
{ "type": "Feature", "properties": { "id": 65, "latitude": 41.335143333333335, "longitude": -72.909618333333327, "stem_count": "1", "base_diameter_cm": 0.72, "dbh_cm": null, "height_m": 0.54, "sex": "U", "notes": null }, "geometry": { "type": "Point", "coordinates": [ -72.909618333333327, 41.335143333333335 ] } },
{ "type": "Feature", "properties": { "id": 66, "latitude": 41.33530833333333, "longitude": -72.909426666666661, "stem_count": "1", "base_diameter_cm": 0.85, "dbh_cm": null, "height_m": 0.62, "sex": "U", "notes": "2 dead stems" }, "geometry": { "type": "Point", "coordinates": [ -72.909426666666661, 41.33530833333333 ] } },
{ "type": "Feature", "properties": { "id": 67, "latitude": 41.33527, "longitude": -72.909376666666674, "stem_count": "3", "base_diameter_cm": 4.86, "dbh_cm": 1.84, "height_m": 2.7, "sex": "U", "notes": null }, "geometry": { "type": "Point", "coordinates": [ -72.909376666666674, 41.33527 ] } },
{ "type": "Feature", "properties": { "id": 68, "latitude": 41.335256666666666, "longitude": -72.909273333333331, "stem_count": "10", "base_diameter_cm": 5.56, "dbh_cm": 3.4, "height_m": 4.27, "sex": "U", "notes": null }, "geometry": { "type": "Point", "coordinates": [ -72.909273333333331, 41.335256666666666 ] } },
{ "type": "Feature", "properties": { "id": 69, "latitude": 41.335236666666667, "longitude": -72.90929, "stem_count": "7", "base_diameter_cm": 5.63, "dbh_cm": 2.46, "height_m": 4.16, "sex": "U", "notes": null }, "geometry": { "type": "Point", "coordinates": [ -72.90929, 41.335236666666667 ] } },
{ "type": "Feature", "properties": { "id": 70, "latitude": 41.33524, "longitude": -72.90931333333333, "stem_count": "10", "base_diameter_cm": 10.6, "dbh_cm": 9.2, "height_m": 4.6, "sex": "U", "notes": null }, "geometry": { "type": "Point", "coordinates": [ -72.90931333333333, 41.33524 ] } },
{ "type": "Feature", "properties": { "id": 71, "latitude": 41.335236666666667, "longitude": -72.909271666666669, "stem_count": "10", "base_diameter_cm": 6.76, "dbh_cm": 5.28, "height_m": 4.68, "sex": "U", "notes": "1 dead stem" }, "geometry": { "type": "Point", "coordinates": [ -72.909271666666669, 41.335236666666667 ] } },
{ "type": "Feature", "properties": { "id": 72, "latitude": 41.33522, "longitude": -72.909303333333327, "stem_count": "13", "base_diameter_cm": 4.47, "dbh_cm": 4.09, "height_m": 4.33, "sex": "U", "notes": null }, "geometry": { "type": "Point", "coordinates": [ -72.909303333333327, 41.33522 ] } },
{ "type": "Feature", "properties": { "id": 73, "latitude": 41.335193333333336, "longitude": -72.909401666666668, "stem_count": "20", "base_diameter_cm": 8.91, "dbh_cm": 6.01, "height_m": 4.79, "sex": "U", "notes": "6 dead stems" }, "geometry": { "type": "Point", "coordinates": [ -72.909401666666668, 41.335193333333336 ] } },
{ "type": "Feature", "properties": { "id": 74, "latitude": 41.335215, "longitude": -72.909333333333336, "stem_count": "4", "base_diameter_cm": 4.34, "dbh_cm": 2.19, "height_m": 3.21, "sex": "U", "notes": null }, "geometry": { "type": "Point", "coordinates": [ -72.909333333333336, 41.335215 ] } }
]
}
